{"fetched_at":"2026-07-21T17:53:05.430Z","source":"https://celestrak.org/NORAD/elements/gp.php?GROUP=oneweb&FORMAT=JSON","constellation":"oneweb","records":[{"OBJECT_NAME":"ONEWEB-0588","OBJECT_ID":"2023-004P","EPOCH":"2026-07-21T02:25:17.847264","CLASSIFICATION_TYPE":"U","MEAN_MOTION":13.18687025,"ECCENTRICITY":0.00020405,"INCLINATION":87.9191,"RA_OF_ASC_NODE":328.7241,"ARG_OF_PERICENTER":84.9061,"MEAN_ANOMALY":275.2304,"EPHEMERIS_TYPE":0,"NORAD_CAT_ID":55153,"ELEMENT_SET_NO":999,"REV_AT_EPOCH":17416,"BSTAR":-0.000080099904,"MEAN_MOTION_DOT":-1.9e-7,"MEAN_MOTION_DDOT":0},{"OBJECT_NAME":"ONEWEB-0598","OBJECT_ID":"2023-004Q","EPOCH":"2026-07-21T04:31:36.494112","CLASSIFICATION_TYPE":"U","MEAN_MOTION":13.11415778,"ECCENTRICITY":0.00025519,"INCLINATION":87.8889,"RA_OF_ASC_NODE":14.2977,"ARG_OF_PERICENTER":95.514,"MEAN_ANOMALY":264.6279,"EPHEMERIS_TYPE":0,"NORAD_CAT_ID":55154,"ELEMENT_SET_NO":999,"REV_AT_EPOCH":17035,"BSTAR":-0.0010275698,"MEAN_MOTION_DOT":-0.00000351,"MEAN_MOTION_DDOT":0},{"OBJECT_NAME":"ONEWEB-0599","OBJECT_ID":"2023-004R","EPOCH":"2026-07-20T21:25:06.021984","CLASSIFICATION_TYPE":"U","MEAN_MOTION":13.17647689,"ECCENTRICITY":0.0001947,"INCLINATION":87.9152,"RA_OF_ASC_NODE":359.159,"ARG_OF_PERICENTER":100.9004,"MEAN_ANOMALY":259.2346,"EPHEMERIS_TYPE":0,"NORAD_CAT_ID":55155,"ELEMENT_SET_NO":999,"REV_AT_EPOCH":17192,"BSTAR":0.000039315631,"MEAN_MOTION_DOT":2.8e-7,"MEAN_MOTION_DDOT":0},{"OBJECT_NAME":"ONEWEB-0614","OBJECT_ID":"2023-004S","EPOCH":"2026-07-21T00:44:32.991360","CLASSIFICATION_TYPE":"U","MEAN_MOTION":13.11414937,"ECCENTRICITY":0.00016757,"INCLINATION":87.8886,"RA_OF_ASC_NODE":14.3369,"ARG_OF_PERICENTER":85.5411,"MEAN_ANOMALY":274.5908,"EPHEMERIS_TYPE":0,"NORAD_CAT_ID":55156,"ELEMENT_SET_NO":999,"REV_AT_EPOCH":17027,"BSTAR":-0.0004072507,"MEAN_MOTION_DOT":-0.00000132,"MEAN_MOTION_DDOT":0},{"OBJECT_NAME":"ONEWEB-0616","OBJECT_ID":"2023-004T","EPOCH":"2026-07-20T22:25:50.874240","CLASSIFICATION_TYPE":"U","MEAN_MOTION":13.17647758,"ECCENTRICITY":0.00020338,"INCLINATION":87.9153,"RA_OF_ASC_NODE":359.1547,"ARG_OF_PERICENTER":121.2911,"MEAN_ANOMALY":238.842,"EPHEMERIS_TYPE":0,"NORAD_CAT_ID":55157,"ELEMENT_SET_NO":999,"REV_AT_EPOCH":17214,"BSTAR":-0.000061651172,"MEAN_MOTION_DOT":-1.1e-7,"MEAN_MOTION_DDOT":0},{"OBJECT_NAME":"ONEWEB-0617","OBJECT_ID":"2023-004U","EPOCH":"2026-07-21T00:27:27.157248","CLASSIFICATION_TYPE":"U","MEAN_MOTION":13.11416486,"ECCENTRICITY":0.00017814,"INCLINATION":87.8893,"RA_OF_ASC_NODE":14.3324,"ARG_OF_PERICENTER":80.1051,"MEAN_ANOMALY":280.0278,"EPHEMERIS_TYPE":0,"NORAD_CAT_ID":55158,"ELEMENT_SET_NO":999,"REV_AT_EPOCH":17029,"BSTAR":0.00097436269,"MEAN_MOTION_DOT":0.00000358,"MEAN_MOTION_DDOT":0},{"OBJECT_NAME":"ONEWEB-0618","OBJECT_ID":"2023-004V","EPOCH":"2026-07-20T21:58:20.604000","CLASSIFICATION_TYPE":"U","MEAN_MOTION":15.13437732,"ECCENTRICITY":0.001312,"INCLINATION":86.9106,"RA_OF_ASC_NODE":163.9395,"ARG_OF_PERICENTER":155.3167,"MEAN_ANOMALY":204.8704,"EPHEMERIS_TYPE":0,"NORAD_CAT_ID":55159,"ELEMENT_SET_NO":999,"REV_AT_EPOCH":18736,"BSTAR":0.00024542873,"MEAN_MOTION_DOT":0.00004425,"MEAN_MOTION_DDOT":0},{"OBJECT_NAME":"ONEWEB-0619","OBJECT_ID":"2023-004W","EPOCH":"2026-07-21T04:40:03.681120","CLASSIFICATION_TYPE":"U","MEAN_MOTION":13.17647931,"ECCENTRICITY":0.00014199,"INCLINATION":87.9165,"RA_OF_ASC_NODE":359.0868,"ARG_OF_PERICENTER":95.5265,"MEAN_ANOMALY":264.6028,"EPHEMERIS_TYPE":0,"NORAD_CAT_ID":55160,"ELEMENT_SET_NO":999,"REV_AT_EPOCH":17207,"BSTAR":0.00017632375,"MEAN_MOTION_DOT":8.1e-7,"MEAN_MOTION_DDOT":0},{"OBJECT_NAME":"ONEWEB-0620","OBJECT_ID":"2023-004X","EPOCH":"2026-07-21T00:20:08.512224","CLASSIFICATION_TYPE":"U","MEAN_MOTION":13.11416332,"ECCENTRICITY":0.00020939,"INCLINATION":87.8886,"RA_OF_ASC_NODE":14.3399,"ARG_OF_PERICENTER":89.4125,"MEAN_ANOMALY":270.7242,"EPHEMERIS_TYPE":0,"NORAD_CAT_ID":55161,"ELEMENT_SET_NO":999,"REV_AT_EPOCH":17026,"BSTAR":0.001229473,"MEAN_MOTION_DOT":0.00000448,"MEAN_MOTION_DDOT":0},{"OBJECT_NAME":"ONEWEB-0621","OBJECT_ID":"2023-004Y","EPOCH":"2026-07-21T04:38:56.047200","CLASSIFICATION_TYPE":"U","MEAN_MOTION":13.1141569,"ECCENTRICITY":0.00016385,"INCLINATION":87.8894,"RA_OF_ASC_NODE":14.2962,"ARG_OF_PERICENTER":86.155,"MEAN_ANOMALY":273.9765,"EPHEMERIS_TYPE":0,"NORAD_CAT_ID":55162,"ELEMENT_SET_NO":999,"REV_AT_EPOCH":17026,"BSTAR":-0.0012962447,"MEAN_MOTION_DOT":-0.00000447,"MEAN_MOTION_DDOT":0},{"OBJECT_NAME":"ONEWEB-0622","OBJECT_ID":"2023-004Z","EPOCH":"2026-07-21T04:46:15.427488","CLASSIFICATION_TYPE":"U","MEAN_MOTION":13.11416261,"ECCENTRICITY":0.00019787,"INCLINATION":87.8898,"RA_OF_ASC_NODE":14.2979,"ARG_OF_PERICENTER":69.9245,"MEAN_ANOMALY":290.2095,"EPHEMERIS_TYPE":0,"NORAD_CAT_ID":55163,"ELEMENT_SET_NO":999,"REV_AT_EPOCH":17025,"BSTAR":-0.0015921941,"MEAN_MOTION_DOT":-0.00000552,"MEAN_MOTION_DDOT":0},{"OBJECT_NAME":"ONEWEB-0623","OBJECT_ID":"2023-004AA","EPOCH":"2026-07-21T04:32:47.018112","CLASSIFICATION_TYPE":"U","MEAN_MOTION":13.17648479,"ECCENTRICITY":0.0001405,"INCLINATION":87.9151,"RA_OF_ASC_NODE":359.1139,"ARG_OF_PERICENTER":71.2309,"MEAN_ANOMALY":288.8975,"EPHEMERIS_TYPE":0,"NORAD_CAT_ID":55164,"ELEMENT_SET_NO":999,"REV_AT_EPOCH":17206,"BSTAR":0.000033629245,"MEAN_MOTION_DOT":2.6e-7,"MEAN_MOTION_DDOT":0},{"OBJECT_NAME":"ONEWEB-0624","OBJECT_ID":"2023-004AB","EPOCH":"2026-07-20T22:55:52.289184","CLASSIFICATION_TYPE":"U","MEAN_MOTION":13.12928405,"ECCENTRICITY":0.0001747,"INCLINATION":87.8974,"RA_OF_ASC_NODE":343.8659,"ARG_OF_PERICENTER":92.4893,"MEAN_ANOMALY":267.6436,"EPHEMERIS_TYPE":0,"NORAD_CAT_ID":55165,"ELEMENT_SET_NO":999,"REV_AT_EPOCH":17250,"BSTAR":-0.00089805057,"MEAN_MOTION_DOT":-0.00000313,"MEAN_MOTION_DDOT":0},{"OBJECT_NAME":"ONEWEB-0625","OBJECT_ID":"2023-004AC","EPOCH":"2026-07-21T04:18:11.914848","CLASSIFICATION_TYPE":"U","MEAN_MOTION":13.17647225,"ECCENTRICITY":0.00017877,"INCLINATION":87.9154,"RA_OF_ASC_NODE":359.1123,"ARG_OF_PERICENTER":99.3045,"MEAN_ANOMALY":260.8289,"EPHEMERIS_TYPE":0,"NORAD_CAT_ID":55166,"ELEMENT_SET_NO":999,"REV_AT_EPOCH":17205,"BSTAR":-0.000032933114,"MEAN_MOTION_DOT":0,"MEAN_MOTION_DDOT":0},{"OBJECT_NAME":"ONEWEB-0626","OBJECT_ID":"2023-004AD","EPOCH":"2026-07-20T22:35:35.457504","CLASSIFICATION_TYPE":"U","MEAN_MOTION":13.17647837,"ECCENTRICITY":0.00021886,"INCLINATION":87.9153,"RA_OF_ASC_NODE":359.1592,"ARG_OF_PERICENTER":96.8381,"MEAN_ANOMALY":263.2999,"EPHEMERIS_TYPE":0,"NORAD_CAT_ID":55167,"ELEMENT_SET_NO":999,"REV_AT_EPOCH":17202,"BSTAR":-0.00012905945,"MEAN_MOTION_DOT":-3.7e-7,"MEAN_MOTION_DDOT":0},{"OBJECT_NAME":"ONEWEB-0627","OBJECT_ID":"2023-004AE","EPOCH":"2026-07-21T03:46:37.323552","CLASSIFICATION_TYPE":"U","MEAN_MOTION":13.1764835,"ECCENTRICITY":0.00015608,"INCLINATION":87.9153,"RA_OF_ASC_NODE":359.1168,"ARG_OF_PERICENTER":80.6324,"MEAN_ANOMALY":279.4984,"EPHEMERIS_TYPE":0,"NORAD_CAT_ID":55168,"ELEMENT_SET_NO":999,"REV_AT_EPOCH":17205,"BSTAR":-0.00020440859,"MEAN_MOTION_DOT":-6.6e-7,"MEAN_MOTION_DDOT":0}]}
